
# Worst residual: 5.38 km
# MJD 60494.000000 (2024 Jul  3  0:00)
A116CgX = A116I21
1 79925U 24999ZZO 24185.49919926  .00000000  00000-0  00000-0 0 23282
2 79925 027.7004 358.2752 9055167 154.7660 161.5701 00.44222254    04

# Worst residual: 17.98 km
# MJD 60495.000000 (2024 Jul  4  0:00)
A116CgX = A116I21
1 79925U 24999ZZO 24186.49919926  .00000000  00000-0  00000-0 0 23283
2 79925 027.7265 358.2113 9053498 154.8679 320.6791 00.44224198    06

# Worst residual: 8.36 km
# MJD 60496.000000 (2024 Jul  5  0:00)
A116CgX = A116I21
1 79925U 24999ZZO 24187.49919926  .00000000  00000-0  00000-0 0 23284
2 79925 027.7113 358.1554 9055806 154.9681 119.7887 00.44218654    08

# Worst residual: 12.30 km
# MJD 60497.000000 (2024 Jul  6  0:00)
A116CgX = A116I21
1 79925U 24999ZZO 24188.49919926  .00000000  00000-0  00000-0 0 23285
2 79925 027.7054 358.1165 9053057 155.0396 278.9092 00.44198661    02

# Worst residual: 12.29 km
# MJD 60498.000000 (2024 Jul  7  0:00)
A116CgX = A116I21
1 79925U 24999ZZO 24189.49919926  .00000000  00000-0  00000-0 0 23286
2 79925 027.7218 358.0304 9053754 155.1865 078.0029 00.44206893    00

# Worst residual: 8.69 km
# MJD 60499.000000 (2024 Jul  8  0:00)
A116CgX = A116I21
1 79925U 24999ZZO 24190.49919926  .00000000  00000-0  00000-0 0 23288
2 79925 027.6890 358.0203 9053591 155.2294 237.1528 00.44207503    00

# Worst residual: 22.65 km
# MJD 60500.000000 (2024 Jul  9  0:00)
A116CgX = A116I21
1 79925U 24999ZZO 24191.49919926  .00000000  00000-0  00000-0 0 23289
2 79925 027.7086 357.9459 9053596 155.3528 036.2616 00.44185133    05

# Worst residual: 2.25 km
# MJD 60501.000000 (2024 Jul 10  0:00)
A116CgX = A116I21
1 79925U 24999ZZO 24192.49919926  .00000000  00000-0  00000-0 0 23280
2 79925 027.6840 357.9153 9054553 155.4114 195.4364 00.44212476    08

# Worst residual: 22.67 km
# MJD 60502.000000 (2024 Jul 11  0:00)
A116CgX = A116I21
1 79925U 24999ZZO 24193.49919926  .00000000  00000-0  00000-0 0 23281
2 79925 027.7095 357.8467 9054226 155.5128 354.5902 00.44189809    00

# Worst residual: 5.88 km
# MJD 60503.000000 (2024 Jul 12  0:00)
A116CgX = A116I21
1 79925U 24999ZZO 24194.49919926  .00000000  00000-0  00000-0 0 23282
2 79925 027.6908 357.7996 9055127 155.6025 153.7173 00.44211397    03

# Worst residual: 11.80 km
# MJD 60504.000000 (2024 Jul 13  0:00)
A116CgX = A116I21
1 79925U 24999ZZO 24195.49919926  .00000000  00000-0  00000-0 0 23283
2 79925 027.7156 357.7365 9054573 155.6945 312.8517 00.44205473    02

# Worst residual: 8.66 km
# MJD 60505.000000 (2024 Jul 14  0:00)
A116CgX = A116I21
1 79925U 24999ZZO 24196.49919926  .00000000  00000-0  00000-0 0 23284
2 79925 027.7044 357.6716 9055326 155.8154 111.9607 00.44211029    00

# Worst residual: 8.56 km
# MJD 60506.000000 (2024 Jul 15  0:00)
A116CgX = A116I21
1 79925U 24999ZZO 24197.49919926  .00000000  00000-0  00000-0 0 23285
2 79925 027.6921 357.6382 9055695 155.8872 271.0653 00.44214977    02

# Worst residual: 8.71 km
# MJD 60507.000000 (2024 Jul 16  0:00)
A116CgX = A116I21
1 79925U 24999ZZO 24198.49919926  .00000000  00000-0  00000-0 0 23286
2 79925 027.7118 357.5482 9054182 156.0270 070.1830 00.44219587    03

# Worst residual: 5.70 km
# MJD 60508.000000 (2024 Jul 17  0:00)
A116CgX = A116I21
1 79925U 24999ZZO 24199.49919926  .00000000  00000-0  00000-0 0 23287
2 79925 027.6716 357.5448 9055255 156.0686 229.2995 00.44219614    01

# Worst residual: 14.60 km
# MJD 60509.000000 (2024 Jul 18  0:00)
A116CgX = A116I21
1 79925U 24999ZZO 24200.49919926  .00000000  00000-0  00000-0 0 23280
2 79925 027.6895 357.4741 9052248 156.1731 028.4312 00.44244051    00

# Worst residual: 3.84 km
# MJD 60510.000000 (2024 Jul 19  0:00)
A116CgX = A116I21
1 79925U 24999ZZO 24201.49919926  .00000000  00000-0  00000-0 0 23281
2 79925 027.6641 357.4427 9055424 156.2364 187.5412 00.44226168    09

# Worst residual: 17.14 km
# MJD 60511.000000 (2024 Jul 20  0:00)
A116CgX = A116I21
1 79925U 24999ZZO 24202.49919926  .00000000  00000-0  00000-0 0 23282
2 79925 027.6869 357.3774 9053587 156.3353 346.7213 00.44217700    02

# Worst residual: 8.33 km
# MJD 60512.000000 (2024 Jul 21  0:00)
A116CgX = A116I21
1 79925U 24999ZZO 24203.49919926  .00000000  00000-0  00000-0 0 23283
2 79925 027.6655 357.3318 9057517 156.4119 145.7524 00.44201366    00

# Worst residual: 18.84 km
# MJD 60513.000000 (2024 Jul 22  0:00)
A116CgX = A116I21
1 79925U 24999ZZO 24204.49919926  .00000000  00000-0  00000-0 0 23284
2 79925 027.6768 357.2809 9060869 156.5066 304.8762 00.44196194    09

# Worst residual: 9.10 km
# MJD 60514.000000 (2024 Jul 23  0:00)
A116CgX = A116I21
1 79925U 24999ZZO 24205.49919926  .00000000  00000-0  00000-0 0 23285
2 79925 027.6638 357.2126 9061226 156.6663 103.9152 00.44185263    05

# Worst residual: 8.29 km
# MJD 60515.000000 (2024 Jul 24  0:00)
A116CgX = A116I21
1 79925U 24999ZZO 24206.49919926  .00000000  00000-0  00000-0 0 23286
2 79925 027.6209 357.2072 9059933 156.7381 262.7071 00.44177669    04

# Worst residual: 16.50 km
# MJD 60516.000000 (2024 Jul 25  0:00)
A116CgX = A116I21
1 79925U 24999ZZO 24207.49919926  .00000000  00000-0  00000-0 0 23287
2 79925 027.6319 357.1202 9059897 156.9065 061.7458 00.44203907    01

# Worst residual: 7.28 km
# MJD 60517.000000 (2024 Jul 26  0:00)
A116CgX = A116I21
1 79925U 24999ZZO 24208.49919926  .00000000  00000-0  00000-0 0 23288
2 79925 027.5887 357.1158 9056459 156.9620 220.8991 00.44205910    04

# Worst residual: 21.91 km
# MJD 60518.000000 (2024 Jul 27  0:00)
A116CgX = A116I21
1 79925U 24999ZZO 24209.49919926  .00000000  00000-0  00000-0 0 23289
2 79925 027.6036 357.0458 9052226 157.0594 019.9541 00.44221636    04

# Worst residual: 3.33 km
# MJD 60519.000000 (2024 Jul 28  0:00)
A116CgX = A116I21
1 79925U 24999ZZO 24210.49919926  .00000000  00000-0  00000-0 0 23281
2 79925 027.5812 357.0065 9054789 157.1322 179.1130 00.44225631    07

# Worst residual: 13.60 km
# MJD 60520.000000 (2024 Jul 29  0:00)
A116CgX = A116I21
1 79925U 24999ZZO 24211.49919926  .00000000  00000-0  00000-0 0 23282
2 79925 027.6041 356.9432 9052422 157.2293 338.2395 00.44240664    02

# Worst residual: 7.93 km
# MJD 60521.000000 (2024 Jul 30  0:00)
A116CgX = A116I21
1 79925U 24999ZZO 24212.49919926  .00000000  00000-0  00000-0 0 23283
2 79925 027.5843 356.8889 9055472 157.3211 137.3420 00.44217851    04

# Worst residual: 7.93 km
# MJD 60522.000000 (2024 Jul 31  0:00)
A116CgX = A116I21
1 79925U 24999ZZO 24213.49919926  .00000000  00000-0  00000-0 0 23284
2 79925 027.5910 356.8384 9054253 157.4060 296.4456 00.44210895    05
